IRIDIUM 150             
1 43257U 18030J   25088.79244474  .00000246  00000+0  80876-4 0  9991
2 43257  86.3920 116.2754 0001923  98.0289 262.1124 14.34214092366461
IRIDIUM 143             
1 43258U 18030K   25088.77342107  .00000223  00000+0  72453-4 0  9999
2 43258  86.3933 116.3573 0001832  96.1264 264.0140 14.34216454366392
IRIDIUM 161             
1 43478U 18047C   25088.89697209  .00000321  00000+0  89561-4 0  9997
2 43478  86.4429 274.1003 0002228  91.6832 268.4624 14.43272152361059
IRIDIUM 152             
1 43479U 18047D   25088.95544134  .00000039  00000+0  67714-5 0  9996
2 43479  86.3902 273.9356 0002142  88.9852 271.1589 14.34217648358819
IRIDIUM 147             
1 43480U 18047E   25088.96178915  .00000217  00000+0  70469-4 0  9997
2 43480  86.3906 273.9304 0002295  93.6969 266.4489 14.34216330358812
IRIDIUM 110             
1 43481U 18047F   25088.89835774  .00000047  00000+0  95826-5 0  9999
2 43481  86.3908 274.0374 0002549  85.7614 274.3873 14.34217093358794
IRIDIUM 162             
1 43482U 18047G   25088.96000265  .00000212  00000+0  57154-4 0  9992
2 43482  86.4428 273.9700 0002197  81.7628 278.3822 14.43274975361057
IRIDIUM 160             
1 43569U 18061A   25088.91396452 -.00000030  00000+0 -17680-4 0  9995
2 43569  86.3946 242.3839 0002354  92.1091 268.0375 14.34216166349698
